{"type": "FeatureCollection", "features": [ {"type": "Feature", "properties": {"norad_id": 30594, "name": "FENGYUN 1C DEB", "group": "fengyun-1c-debris", "lat": -29.861411918837675, "lon": -159.41473935032175, "alt_km": 701.6427639369922, "timestamp": "2025-12-05T07:38:19.122929+00:00", "meta": {"OBJECT_NAME": "FENGYUN 1C DEB", "OBJECT_ID": "1999-025ALZ", "EPOCH": "2025-12-03T13:25:12.140256", "MEAN_MOTION": 14.17326532, "ECCENTRICITY": 0.01938147, "INCLINATION": 99.152, "RA_OF_ASC_NODE": 193.4631, "ARG_OF_PERICENTER": 342.4171, "MEAN_ANOMALY": 17.0355, "EPHEMERIS_TYPE": 0, "CLASSIFICATION_TYPE": "U", "NORAD_CAT_ID": 30594, "ELEMENT_SET_NO": 999, "REV_AT_EPOCH": 97449, "BSTAR": 0.00025855225, "MEAN_MOTION_DOT": 5.79e-06, "MEAN_MOTION_DDOT": 0}, "tle": {"line1": "1 30594U 99025ALZ 25337.55916829  .00000579  00000+0  25855-3 0  9999", "line2": "2 30594  99.1520 193.4631 0193814 342.4171  17.0355 14.17326532974492"}}, "geometry": {"type": "Point", "coordinates": [-159.41473935032175, -29.861411918837675]}}, {"type": "Feature", "properties": {"norad_id": 30596, "name": "FENGYUN 1C DEB", "group": "fengyun-1c-debris", "lat": -21.264591636572412, "lon": 153.9255886070894, "alt_km": 839.1193934060557, "timestamp": "2025-12-05T07:38:19.122939+00:00", "meta": {"OBJECT_NAME": "FENGYUN 1C DEB", "OBJECT_ID": "1999-025AMB", "EPOCH": "2025-12-03T16:25:38.939808", "MEAN_MOTION": 14.34311075, "ECCENTRICITY": 0.02478111, "INCLINATION": 98.4123, "RA_OF_ASC_NODE": 335.6352, "ARG_OF_PERICENTER": 316.1878, "MEAN_ANOMALY": 96.5786, "EPHEMERIS_TYPE": 0, "CLASSIFICATION_TYPE": "U", "NORAD_CAT_ID": 30596, "ELEMENT_SET_NO": 999, "REV_AT_EPOCH": 98431, "BSTAR": 0.00072731184, "MEAN_MOTION_DOT": 2.834e-05, "MEAN_MOTION_DDOT": 0}, "tle": {"line1": "1 30596U 99025AMB 25337.68447847  .00002834  00000+0  72731-3 0  9995", "line2": "2 30596  98.4123 335.6352 0247811 316.1878  96.5786 14.34311075984311"}}, "geometry": {"type": "Point", "coordinates": [153.9255886070894, -21.264591636572412]}}, {"type": "Feature", "properties": {"norad_id": 30597, "name": "FENGYUN 1C DEB", "group": "fengyun-1c-debris", "lat": -14.414622824471476, "lon": -82.89004216503808, "alt_km": 626.6305730997192, "timestamp": "2025-12-05T07:38:19.122949+00:00", "meta": {"OBJECT_NAME": "FENGYUN 1C DEB", "OBJECT_ID": "1999-025AMC", "EPOCH": "2025-12-04T12:22:50.247840", "MEAN_MOTION": 14.91188487, "ECCENTRICITY": 0.0044406, "INCLINATION": 98.9425, "RA_OF_ASC_NODE": 273.8818, "ARG_OF_PERICENTER": 191.5861, "MEAN_ANOMALY": 168.4336, "EPHEMERIS_TYPE": 0, "CLASSIFICATION_TYPE": "U", "NORAD_CAT_ID": 30597, "ELEMENT_SET_NO": 999, "REV_AT_EPOCH": 98414, "BSTAR": 0.011635, "MEAN_MOTION_DOT": 0.00119608, "MEAN_MOTION_DDOT": 0}, "tle": {"line1": "1 30597U 99025AMC 25338.51585935  .00119608  00000+0  11635-1 0  9992", "line2": "2 30597  98.9425 273.8818 0044406 191.5861 168.4336 14.91188487984147"}}, "geometry": {"type": "Point", "coordinates": [-82.89004216503808, -14.414622824471476]}}, {"type": "Feature", "properties": {"norad_id": 30599, "name": "FENGYUN 1C DEB", "group": "fengyun-1c-debris", "lat": -17.452307320049023, "lon": 168.41084244713852, "alt_km": 1045.3955111752593, "timestamp": "2025-12-05T07:38:19.122959+00:00", "meta": {"OBJECT_NAME": "FENGYUN 1C DEB", "OBJECT_ID": "1999-025AME", "EPOCH": "2025-12-03T07:20:51.743616", "MEAN_MOTION": 14.19615051, "ECCENTRICITY": 0.0303096, "INCLINATION": 98.6033, "RA_OF_ASC_NODE": 349.1805, "ARG_OF_PERICENTER": 12.0705, "MEAN_ANOMALY": 348.7529, "EPHEMERIS_TYPE": 0, "CLASSIFICATION_TYPE": "U", "NORAD_CAT_ID": 30599, "ELEMENT_SET_NO": 999, "REV_AT_EPOCH": 97033, "BSTAR": 0.0011332, "MEAN_MOTION_DOT": 3.745e-05, "MEAN_MOTION_DDOT": 0}, "tle": {"line1": "1 30599U 99025AME 25337.30615444  .00003745  00000+0  11332-2 0  9998", "line2": "2 30599  98.6033 349.1805 0303096  12.0705 348.7529 14.19615051970336"}}, "geometry": {"type": "Point", "coordinates": [168.41084244713852, -17.452307320049023]}}, {"type": "Feature", "properties": {"norad_id": 30600, "name": "FENGYUN 1C DEB", "group": "fengyun-1c-debris", "lat": -81.60345488119101, "lon": 16.7294089445633, "alt_km": 637.0485788282995, "timestamp": "2025-12-05T07:38:19.122969+00:00", "meta": {"OBJECT_NAME": "FENGYUN 1C DEB", "OBJECT_ID": "1999-025AMF", "EPOCH": "2025-11-30T15:24:54.916992", "MEAN_MOTION": 14.07030871, "ECCENTRICITY": 0.0330604, "INCLINATION": 98.3855, "RA_OF_ASC_NODE": 280.231, "ARG_OF_PERICENTER": 282.0902, "MEAN_ANOMALY": 74.3412, "EPHEMERIS_TYPE": 0, "CLASSIFICATION_TYPE": "U", "NORAD_CAT_ID": 30600, "ELEMENT_SET_NO": 999, "REV_AT_EPOCH": 94262, "BSTAR": 0.0058342, "MEAN_MOTION_DOT": 0.00016035, "MEAN_MOTION_DDOT": 0}, "tle": {"line1": "1 30600U 99025AMF 25334.64230228  .00016035  00000+0  58342-2 0  9996", "line2": "2 30600  98.3855 280.2310 0330604 282.0902  74.3412 14.07030871942629"}}, "geometry": {"type": "Point", "coordinates": [16.7294089445633, -81.60345488119101]}}, {"type": "Feature", "properties": {"norad_id": 30602, "name": "FENGYUN 1C DEB", "group": "fengyun-1c-debris", "lat": -45.31590949785356, "lon": 62.88629816134844, "alt_km": 604.7784841588564, "timestamp": "2025-12-05T07:38:19.122979+00:00", "meta": {"OBJECT_NAME": "FENGYUN 1C DEB", "OBJECT_ID": "1999-025AMH", "EPOCH": "2025-12-04T11:32:01.660992", "MEAN_MOTION": 14.89347486, "ECCENTRICITY": 0.0007575, "INCLINATION": 99.0338, "RA_OF_ASC_NODE": 251.1877, "ARG_OF_PERICENTER": 148.3986, "MEAN_ANOMALY": 268.1976, "EPHEMERIS_TYPE": 0, "CLASSIFICATION_TYPE": "U", "NORAD_CAT_ID": 30602, "ELEMENT_SET_NO": 999, "REV_AT_EPOCH": 97682, "BSTAR": 0.020042, "MEAN_MOTION_DOT": 0.00195605, "MEAN_MOTION_DDOT": 0}, "tle": {"line1": "1 30602U 99025AMH 25338.48057478  .00195605  00000+0  20042-1 0  9994", "line2": "2 30602  99.0338 251.1877 0007575 148.3986 268.1976 14.89347486976824"}}, "geometry": {"type": "Point", "coordinates": [62.88629816134844, -45.31590949785356]}}, {"type": "Feature", "properties": {"norad_id": 30603, "name": "FENGYUN 1C DEB", "group": "fengyun-1c-debris", "lat": 58.258143691433936, "lon": -163.15809926208124, "alt_km": 976.0546767165788, "timestamp": "2025-12-05T07:38:19.122989+00:00", "meta": {"OBJECT_NAME": "FENGYUN 1C DEB", "OBJECT_ID": "1999-025AMJ", "EPOCH": "2025-12-02T01:06:38.105568", "MEAN_MOTION": 13.84066911, "ECCENTRICITY": 0.01829228, "INCLINATION": 98.4104, "RA_OF_ASC_NODE": 0.074, "ARG_OF_PERICENTER": 234.5598, "MEAN_ANOMALY": 153.8128, "EPHEMERIS_TYPE": 0, "CLASSIFICATION_TYPE": "U", "NORAD_CAT_ID": 30603, "ELEMENT_SET_NO": 999, "REV_AT_EPOCH": 94728, "BSTAR": 0.0014668065, "MEAN_MOTION_DOT": 1.819e-05, "MEAN_MOTION_DDOT": 0}, "tle": {"line1": "1 30603U 99025AMJ 25336.04627437  .00001819  00000+0  14668-2 0  9994", "line2": "2 30603  98.4104   0.0740 0182922 234.5598 153.8128 13.84066911947288"}}, "geometry": {"type": "Point", "coordinates": [-163.15809926208124, 58.258143691433936]}}, {"type": "Feature", "properties": {"norad_id": 30604, "name": "FENGYUN 1C DEB", "group": "fengyun-1c-debris", "lat": 3.999640743432584, "lon": -164.9258169216853, "alt_km": 941.928732978382, "timestamp": "2025-12-05T07:38:19.122999+00:00", "meta": {"OBJECT_NAME": "FENGYUN 1C DEB", "OBJECT_ID": "1999-025AMK", "EPOCH": "2025-12-03T13:22:29.164800", "MEAN_MOTION": 14.23585367, "ECCENTRICITY": 0.02102419, "INCLINATION": 98.4036, "RA_OF_ASC_NODE": 12.7982, "ARG_OF_PERICENTER": 33.6981, "MEAN_ANOMALY": 121.027, "EPHEMERIS_TYPE": 0, "CLASSIFICATION_TYPE": "U", "NORAD_CAT_ID": 30604, "ELEMENT_SET_NO": 999, "REV_AT_EPOCH": 97708, "BSTAR": 0.00041869288, "MEAN_MOTION_DOT": 1.154e-05, "MEAN_MOTION_DDOT": 0}, "tle": {"line1": "1 30604U 99025AMK 25337.55728200  .00001154  00000+0  41869-3 0  9998", "line2": "2 30604  98.4036  12.7982 0210241  33.6981 121.0270 14.23585367977082"}}, "geometry": {"type": "Point", "coordinates": [-164.9258169216853, 3.999640743432584]}}, {"type": "Feature", "properties": {"norad_id": 30606, "name": "FENGYUN 1C DEB", "group": "fengyun-1c-debris", "lat": -21.396313694635946, "lon": -7.129630788528966, "alt_km": 857.7477670448889, "timestamp": "2025-12-05T07:38:19.123009+00:00", "meta": {"OBJECT_NAME": "FENGYUN 1C DEB", "OBJECT_ID": "1999-025AMM", "EPOCH": "2025-12-03T13:29:53.970144", "MEAN_MOTION": 14.57532958, "ECCENTRICITY": 0.02138983, "INCLINATION": 98.096, "RA_OF_ASC_NODE": 347.9639, "ARG_OF_PERICENTER": 165.6956, "MEAN_ANOMALY": 324.9977, "EPHEMERIS_TYPE": 0, "CLASSIFICATION_TYPE": "U", "NORAD_CAT_ID": 30606, "ELEMENT_SET_NO": 999, "REV_AT_EPOCH": 99108, "BSTAR": 0.00087947161, "MEAN_MOTION_DOT": 5.43e-05, "MEAN_MOTION_DDOT": 0}, "tle": {"line1": "1 30606U 99025AMM 25337.56243021  .00005430  00000+0  87947-3 0  9992", "line2": "2 30606  98.0960 347.9639 0213898 165.6956 324.9977 14.57532958991086"}}, "geometry": {"type": "Point", "coordinates": [-7.129630788528966, -21.396313694635946]}}, {"type": "Feature", "properties": {"norad_id": 30608, "name": "FENGYUN 1C DEB", "group": "fengyun-1c-debris", "lat": 55.91095722462211, "lon": -124.90779242354316, "alt_km": 789.2423337610189, "timestamp": "2025-12-05T07:38:19.123019+00:00", "meta": {"OBJECT_NAME": "FENGYUN 1C DEB", "OBJECT_ID": "1999-025AMP", "EPOCH": "2025-12-04T04:14:31.570656", "MEAN_MOTION": 14.28399812, "ECCENTRICITY": 0.00156572, "INCLINATION": 98.712, "RA_OF_ASC_NODE": 40.858, "ARG_OF_PERICENTER": 203.9801, "MEAN_ANOMALY": 172.5451, "EPHEMERIS_TYPE": 0, "CLASSIFICATION_TYPE": "U", "NORAD_CAT_ID": 30608, "ELEMENT_SET_NO": 999, "REV_AT_EPOCH": 97317, "BSTAR": 0.0024406824, "MEAN_MOTION_DOT": 6.07e-05, "MEAN_MOTION_DDOT": 0}, "tle": {"line1": "1 30608U 99025AMP 25338.17675429  .00006070  00000+0  24407-2 0  9995", "line2": "2 30608  98.7120  40.8580 0015657 203.9801 172.5451 14.28399812973177"}}, "geometry": {"type": "Point", "coordinates": [-124.90779242354316, 55.91095722462211]}}]}